[{"OBJECT_NAME":"STARLINK-1741","OBJECT_ID":"2020-070AM","EPOCH":"2026-03-10T00:00:02.999808","MEAN_MOTION":15.63456051,"ECCENTRICITY":0.00023144,"INCLINATION":53.0419,"RA_OF_ASC_NODE":116.274,"ARG_OF_PERICENTER":167.1739,"MEAN_ANOMALY":276.5113,"EPHEMERIS_TYPE":0,"CLASSIFICATION_TYPE":"U","NORAD_CAT_ID":46567,"ELEMENT_SET_NO":999,"REV_AT_EPOCH":584,"BSTAR":0.002236825,"MEAN_MOTION_DOT":0.00215668,"MEAN_MOTION_DDOT":0},{"OBJECT_NAME":"TITAN 3C TRANSTAGE R\/B","OBJECT_ID":"1965-108A","EPOCH":"2026-03-09T19:04:14.637504","MEAN_MOTION":3.99909477,"ECCENTRICITY":0.60017124,"INCLINATION":26.8303,"RA_OF_ASC_NODE":293.1493,"ARG_OF_PERICENTER":354.4882,"MEAN_ANOMALY":1.1585,"EPHEMERIS_TYPE":0,"CLASSIFICATION_TYPE":"U","NORAD_CAT_ID":1863,"ELEMENT_SET_NO":999,"REV_AT_EPOCH":36438,"BSTAR":0.0015194189,"MEAN_MOTION_DOT":3.636e-5,"MEAN_MOTION_DDOT":0}]
